QIANFAN-1               
1 60379U 24140A   25351.28463674  .00000075  00000+0  97789-4 0  9997
2 60379  88.9763 298.8097 0016412 196.4960 163.5659 13.50978798 67960
QIANFAN-2               
1 60380U 24140B   25351.31361844  .00000074  00000+0  95810-4 0  9991
2 60380  88.9750 298.6454 0012621 165.3599 194.7921 13.50982527 68025
QIANFAN-3               
1 60381U 24140C   25351.32178121  .00000071  00000+0  91104-4 0  9996
2 60381  88.9742 298.7768 0013303 178.8944 181.2239 13.50983024 67932
QIANFAN-4               
1 60382U 24140D   25351.29697372  .00000082  00000+0  10873-3 0  9992
2 60382  88.9767 298.6782 0012753 168.1898 191.9555 13.50978749 68054
QIANFAN-5               
1 60383U 24140E   25351.27241229  .00000081  00000+0  10684-3 0  9996
2 60383  88.9742 298.8074 0014210 191.5113 168.5716 13.50980742 67913
QIANFAN-6               
1 60384U 24140F   25351.29300412  .00000084  00000+0  11153-3 0  9994
2 60384  88.9769 298.5526 0012684 174.3116 185.8181 13.50981098 68113
QIANFAN-7               
1 60385U 24140G   25351.30052204  .00000592  00000+0  23423-3 0  9997
2 60385  88.9784 293.1853 0016600  32.2652 327.9554 14.27655748 71048
QIANFAN-8               
1 60386U 24140H   25351.30127247  .00000087  00000+0  11662-3 0  9999
2 60386  88.9770 298.7893 0016040 178.3532 181.7675 13.50979036 67966
